[
    {
        "Altitude(m)": 706014.8633139085,
        "Argument of Periapsis(deg)": 0.0022780242373254137,
        "Eccentricity": 0.0,
        "Inclination(deg)": 45.0,
        "Latitude(deg)": 39.25227960150402,
        "Longitude(deg)": -179.4916403044161,
        "Mean Anomaly(deg)": 116.85214332949619,
        "RAAN(deg)": 154.99784961170838,
        "Satellite Name": "Constellation 1 689",
        "Satellite Number": 689,
        "Semi-Major Axis(m)": 7083131.272910544,
        "Time(s)": 38
    },
    {
        "Altitude(m)": 706009.5725513245,
        "Argument of Periapsis(deg)": 0.002337972243570819,
        "Eccentricity": 0.0,
        "Inclination(deg)": 45.0,
        "Latitude(deg)": 39.2271694863666,
        "Longitude(deg)": -179.42448133411335,
        "Mean Anomaly(deg)": 116.91284446974606,
        "RAAN(deg)": 154.9977930225428,
        "Satellite Name": "Constellation 1 689",
        "Satellite Number": 689,
        "Semi-Major Axis(m)": 7083131.272910544,
        "Time(s)": 39
    },
    {
        "Altitude(m)": 706004.2749181975,
        "Argument of Periapsis(deg)": 0.0023979202498162246,
        "Eccentricity": 0.0,
        "Inclination(deg)": 45.0,
        "Latitude(deg)": 39.20201570509624,
        "Longitude(deg)": -179.35737314379108,
        "Mean Anomaly(deg)": 116.973545609996,
        "RAAN(deg)": 154.99773643337724,
        "Satellite Name": "Constellation 1 689",
        "Satellite Number": 689,
        "Semi-Major Axis(m)": 7083131.272910544,
        "Time(s)": 40
    },
    {
        "Altitude(m)": 705998.9704469175,
        "Argument of Periapsis(deg)": 0.00245786825606163,
        "Eccentricity": 0.0,
        "Inclination(deg)": 45.0,
        "Latitude(deg)": 39.17681832708726,
        "Longitude(deg)": -179.29031573966526,
        "Mean Anomaly(deg)": 117.03424675024583,
        "RAAN(deg)": 154.99767984421166,
        "Satellite Name": "Constellation 1 689",
        "Satellite Number": 689,
        "Semi-Major Axis(m)": 7083131.272910544,
        "Time(s)": 41
    },
    {
        "Altitude(m)": 705993.6591699052,
        "Argument of Periapsis(deg)": 0.002517816262307036,
        "Eccentricity": 0.0,
        "Inclination(deg)": 45.0,
        "Latitude(deg)": 39.15157742172221,
        "Longitude(deg)": -179.22330912754242,
        "Mean Anomaly(deg)": 117.09494789049577,
        "RAAN(deg)": 154.99762325504608,
        "Satellite Name": "Constellation 1 689",
        "Satellite Number": 689,
        "Semi-Major Axis(m)": 7083131.272910544,
        "Time(s)": 42
    },
    {
        "Altitude(m)": 705988.3411196436,
        "Argument of Periapsis(deg)": 0.0025777642685524413,
        "Eccentricity": 0.0,
        "Inclination(deg)": 45.0,
        "Latitude(deg)": 39.12629305837171,
        "Longitude(deg)": -179.15635331282232,
        "Mean Anomaly(deg)": 117.15564903074566,
        "RAAN(deg)": 154.9975666658805,
        "Satellite Name": "Constellation 1 689",
        "Satellite Number": 689,
        "Semi-Major Axis(m)": 7083131.272910544,
        "Time(s)": 43
    },
    {
        "Altitude(m)": 705983.0163286562,
        "Argument of Periapsis(deg)": 0.002637712274797847,
        "Eccentricity": 0.0,
        "Inclination(deg)": 45.0,
        "Latitude(deg)": 39.100965306393626,
        "Longitude(deg)": -179.0894484685948,
        "Mean Anomaly(deg)": 117.21635017099554,
        "RAAN(deg)": 154.99751007671495,
        "Satellite Name": "Constellation 1 689",
        "Satellite Number": 689,
        "Semi-Major Axis(m)": 7083131.272910544,
        "Time(s)": 44
    },
    {
        "Altitude(m)": 705977.6848295254,
        "Argument of Periapsis(deg)": 0.0026976602810432526,
        "Eccentricity": 0.0,
        "Inclination(deg)": 45.0,
        "Latitude(deg)": 39.0755942351319,
        "Longitude(deg)": -179.0225942632544,
        "Mean Anomaly(deg)": 117.27705131124547,
        "RAAN(deg)": 154.9974534875494,
        "Satellite Name": "Constellation 1 689",
        "Satellite Number": 689,
        "Semi-Major Axis(m)": 7083131.272910544,
        "Time(s)": 45
    },
    {
        "Altitude(m)": 705972.3466548717,
        "Argument of Periapsis(deg)": 0.0027576082872886585,
        "Eccentricity": 0.0,
        "Inclination(deg)": 45.0,
        "Latitude(deg)": 39.05017991391759,
        "Longitude(deg)": -178.95579086908361,
        "Mean Anomaly(deg)": 117.33775245149536,
        "RAAN(deg)": 154.9973968983838,
        "Satellite Name": "Constellation 1 689",
        "Satellite Number": 689,
        "Semi-Major Axis(m)": 7083131.272910544,
        "Time(s)": 46
    },
    {
        "Altitude(m)": 705967.0018373625,
        "Argument of Periapsis(deg)": 0.0028175562935340644,
        "Eccentricity": 0.0,
        "Inclination(deg)": 45.0,
        "Latitude(deg)": 39.02472241206702,
        "Longitude(deg)": -178.8890382898658,
        "Mean Anomaly(deg)": 117.39845359174528,
        "RAAN(deg)": 154.99734030921823,
        "Satellite Name": "Constellation 1 689",
        "Satellite Number": 689,
        "Semi-Major Axis(m)": 7083131.272910544,
        "Time(s)": 47
    },
    {
        "Altitude(m)": 705961.6504097274,
        "Argument of Periapsis(deg)": 0.00287750429977947,
        "Eccentricity": 0.0,
        "Inclination(deg)": 45.0,
        "Latitude(deg)": 38.999221798881784,
        "Longitude(deg)": -178.82233652898415,
        "Mean Anomaly(deg)": 117.45915473199516,
        "RAAN(deg)": 154.99728372005265,
        "Satellite Name": "Constellation 1 689",
        "Satellite Number": 689,
        "Semi-Major Axis(m)": 7083131.272910544,
        "Time(s)": 48
    },
    {
        "Altitude(m)": 705956.2924047244,
        "Argument of Periapsis(deg)": 0.002937452306024875,
        "Eccentricity": 0.0,
        "Inclination(deg)": 45.0,
        "Latitude(deg)": 38.973678143647994,
        "Longitude(deg)": -178.75568558942265,
        "Mean Anomaly(deg)": 117.51985587224509,
        "RAAN(deg)": 154.9972271308871,
        "Satellite Name": "Constellation 1 689",
        "Satellite Number": 689,
        "Semi-Major Axis(m)": 7083131.272910544,
        "Time(s)": 49
    },
    {
        "Altitude(m)": 705950.927855177,
        "Argument of Periapsis(deg)": 0.0029974003122702807,
        "Eccentricity": 0.0,
        "Inclination(deg)": 45.0,
        "Latitude(deg)": 38.94809151563606,
        "Longitude(deg)": -178.68908547376836,
        "Mean Anomaly(deg)": 117.58055701249495,
        "RAAN(deg)": 154.99717054172152,
        "Satellite Name": "Constellation 1 689",
        "Satellite Number": 689,
        "Semi-Major Axis(m)": 7083131.272910544,
        "Time(s)": 50
    },
    {
        "Altitude(m)": 705945.5567939421,
        "Argument of Periapsis(deg)": 0.0030573483185156866,
        "Eccentricity": 0.0,
        "Inclination(deg)": 45.0,
        "Latitude(deg)": 38.92246198409973,
        "Longitude(deg)": -178.62253618421158,
        "Mean Anomaly(deg)": 117.64125815274485,
        "RAAN(deg)": 154.99711395255596,
        "Satellite Name": "Constellation 1 689",
        "Satellite Number": 689,
        "Semi-Major Axis(m)": 7083131.272910544,
        "Time(s)": 51
    },
    {
        "Altitude(m)": 705940.1792539392,
        "Argument of Periapsis(deg)": 0.003117296324761092,
        "Eccentricity": 0.0,
        "Inclination(deg)": 45.0,
        "Latitude(deg)": 38.89678961827637,
        "Longitude(deg)": -178.55603789064563,
        "Mean Anomaly(deg)": 117.7019592929947,
        "RAAN(deg)": 154.99705736339035,
        "Satellite Name": "Constellation 1 689",
        "Satellite Number": 689,
        "Semi-Major Axis(m)": 7083131.272910544,
        "Time(s)": 52
    },
    {
        "Altitude(m)": 705934.7952681169,
        "Argument of Periapsis(deg)": 0.0031772443310064975,
        "Eccentricity": 0.0,
        "Inclination(deg)": 45.0,
        "Latitude(deg)": 38.87107448738474,
        "Longitude(deg)": -178.48959025827887,
        "Mean Anomaly(deg)": 117.76266043324469,
        "RAAN(deg)": 154.9970007742248,
        "Satellite Name": "Constellation 1 689",
        "Satellite Number": 689,
        "Semi-Major Axis(m)": 7083131.272910544,
        "Time(s)": 53
    },
    {
        "Altitude(m)": 705929.4048694859,
        "Argument of Periapsis(deg)": 0.0032371923372519038,
        "Eccentricity": 0.0,
        "Inclination(deg)": 45.0,
        "Latitude(deg)": 38.84531666062678,
        "Longitude(deg)": -178.4231934562198,
        "Mean Anomaly(deg)": 117.82336157349452,
        "RAAN(deg)": 154.99694418505925,
        "Satellite Name": "Constellation 1 689",
        "Satellite Number": 689,
        "Semi-Major Axis(m)": 7083131.272910544,
        "Time(s)": 54
    },
    {
        "Altitude(m)": 705924.0080910958,
        "Argument of Periapsis(deg)": 0.0032971403434973088,
        "Eccentricity": 0.0,
        "Inclination(deg)": 45.0,
        "Latitude(deg)": 38.81951620718556,
        "Longitude(deg)": -178.356847485089,
        "Mean Anomaly(deg)": 117.88406271374444,
        "RAAN(deg)": 154.99688759589367,
        "Satellite Name": "Constellation 1 689",
        "Satellite Number": 689,
        "Semi-Major Axis(m)": 7083131.272910544,
        "Time(s)": 55
    },
    {
        "Altitude(m)": 705918.6049660448,
        "Argument of Periapsis(deg)": 0.0033570883497427146,
        "Eccentricity": 0.0,
        "Inclination(deg)": 45.0,
        "Latitude(deg)": 38.793673196225114,
        "Longitude(deg)": -178.29055234511847,
        "Mean Anomaly(deg)": 117.94476385399437,
        "RAAN(deg)": 154.99683100672812,
        "Satellite Name": "Constellation 1 689",
        "Satellite Number": 689,
        "Semi-Major Axis(m)": 7083131.272910544,
        "Time(s)": 56
    }
]